NANOSATC-BR1            
1 40024U 14033Q   26068.98267556  .00020336  00000+0  74295-3 0  9994
2 40024  98.0845  92.7804 0004644 147.6715 212.4808 15.28136801638811
STARLINK-31237          
1 58855U 24019C   26068.54522095 -.00002568  00000+0 -83906-4 0  9993
2 58855  43.0013 249.4691 0001376 282.9915  77.0783 15.27552372119060
