[{"OBJECT_NAME":"NANOSATC-BR1","OBJECT_ID":"2014-033Q","EPOCH":"2026-03-09T23:35:03.168384","MEAN_MOTION":15.28136801,"ECCENTRICITY":0.00046435,"INCLINATION":98.0845,"RA_OF_ASC_NODE":92.7804,"ARG_OF_PERICENTER":147.6715,"MEAN_ANOMALY":212.4808,"EPHEMERIS_TYPE":0,"CLASSIFICATION_TYPE":"U","NORAD_CAT_ID":40024,"ELEMENT_SET_NO":999,"REV_AT_EPOCH":63881,"BSTAR":0.00074295057,"MEAN_MOTION_DOT":0.00020336,"MEAN_MOTION_DDOT":0},{"OBJECT_NAME":"STARLINK-31237","OBJECT_ID":"2024-019C","EPOCH":"2026-03-09T13:05:07.090080","MEAN_MOTION":15.27552372,"ECCENTRICITY":0.00013761,"INCLINATION":43.0013,"RA_OF_ASC_NODE":249.4691,"ARG_OF_PERICENTER":282.9915,"MEAN_ANOMALY":77.0783,"EPHEMERIS_TYPE":0,"CLASSIFICATION_TYPE":"U","NORAD_CAT_ID":58855,"ELEMENT_SET_NO":999,"REV_AT_EPOCH":11906,"BSTAR":-8.3906115e-5,"MEAN_MOTION_DOT":-2.568e-5,"MEAN_MOTION_DDOT":0}]
